OBJECT_NAME,OBJECT_ID,EPOCH,MEAN_MOTION,ECCENTRICITY,INCLINATION,RA_OF_ASC_NODE,ARG_OF_PERICENTER,MEAN_ANOMALY,EPHEMERIS_TYPE,CLASSIFICATION_TYPE,NORAD_CAT_ID,ELEMENT_SET_NO,REV_AT_EPOCH,BSTAR,MEAN_MOTION_DOT,MEAN_MOTION_DDOT
STARLINK-37598,2026-123E,2026-06-28T17:42:27.494208,15.80965696,.00017531,53.1561,183.8775,96.6558,263.4664,0,U,69357,999,386,.13709524E-2,.280035E-2,0
STARLINK-37602,2026-123F,2026-06-28T17:18:59.696064,15.75347667,.00008774,53.1578,184.5080,78.6820,281.4299,0,U,69358,999,385,.18602505E-2,.296131E-2,0
STARLINK-37600,2026-123G,2026-06-28T17:12:55.582272,15.75348688,.00012171,53.1568,184.4796,71.5090,288.6062,0,U,69359,999,385,.18936334E-2,.301666E-2,0
STARLINK-37599,2026-123H,2026-06-28T17:27:31.108032,15.80947642,.00014294,53.1556,183.8076,94.1658,265.9528,0,U,69360,999,386,.12289642E-2,.249866E-2,0
STARLINK-37039,2026-123J,2026-06-28T07:31:36.479424,15.75266215,.00012201,53.1589,186.2169,92.2596,267.8564,0,U,69361,999,379,.15044249E-2,.236823E-2,0
STARLINK-37040,2026-123K,2026-06-28T17:06:49.653216,15.80957099,.0000957,53.1561,183.7101,113.2885,246.8239,0,U,69362,999,386,.11931007E-2,.24245E-2,0
STARLINK-37582,2026-123L,2026-06-28T07:51:40.954176,15.75259904,.00013565,53.1558,186.3095,45.2816,314.8314,0,U,69363,999,379,.11731791E-2,.183311E-2,0
STARLINK-37309,2026-123M,2026-06-28T22:00:01.999584,15.75214396,.00011874,53.1582,182.7987,102.2902,283.9483,0,U,69364,999,518,.71300016E-4,.10292E-3,0
STARLINK-37436,2026-123N,2026-06-28T07:41:29.148000,15.80903126,.00009454,53.1563,185.5217,80.5163,279.5967,0,U,69365,999,380,.54123869E-3,.107614E-2,0
STARLINK-37581,2026-123P,2026-06-28T06:15:53.212320,15.80839988,.00019472,53.1562,185.8633,27.8191,332.2935,0,U,69366,999,379,.11055653E-2,.222892E-2,0
STARLINK-37683,2026-123Q,2026-06-28T23:50:26.760192,15.75338140,.00013833,53.1568,182.6244,88.7973,271.3206,0,U,69367,999,390,.16684453E-2,.26441E-2,0
STARLINK-37687,2026-123R,2026-06-28T12:08:09.906144,15.80987609,.00012548,53.1560,184.5412,133.5654,226.5473,0,U,69368,999,383,.12862668E-2,.262417E-2,0
STARLINK-37631,2026-123S,2026-06-28T22:00:01.999584,15.75234533,.00009508,53.1585,182.5857,102.9235,26.3235,0,U,69369,999,509,-.13440725E-3,-.21186E-3,0
STARLINK-37673,2026-123T,2026-06-28T12:51:46.082592,15.75370834,.00009171,53.1587,184.7434,66.6936,293.4181,0,U,69370,999,383,.22882302E-2,.367932E-2,0
STARLINK-37645,2026-123U,2026-06-28T22:00:01.999584,15.75217462,.00010937,53.1576,182.6911,98.7392,339.0034,0,U,69371,999,509,.49565843E-4,.6958E-4,0
STARLINK-37688,2026-123V,2026-06-28T22:00:01.999584,15.75234216,.00010953,53.1593,182.5272,102.2737,54.5486,0,U,69372,999,509,-.8371495E-5,-.1922E-4,0
STARLINK-37685,2026-123W,2026-06-28T07:33:50.818464,15.80950523,.00011287,53.1561,185.4832,98.8377,261.2774,0,U,69373,999,380,.12163953E-2,.247261E-2,0
STARLINK-37632,2026-123X,2026-06-28T12:05:53.200608,15.80983967,.00009366,53.1554,184.5293,94.8127,265.3003,0,U,69374,999,383,.13488204E-2,.275595E-2,0
STARLINK-37454,2026-123Y,2026-06-28T13:35:20.316768,15.80982778,.00009196,53.1558,184.2032,107.1075,253.0048,0,U,69375,999,384,.11511551E-2,.233946E-2,0
STARLINK-37485,2026-123Z,2026-06-28T22:00:01.999584,15.75214680,.00011697,53.1573,182.6325,91.4307,13.9015,0,U,69376,999,518,.11920981E-3,.17653E-3,0
STARLINK-37439,2026-123AA,2026-06-28T11:52:59.528352,15.80973168,.0000785,53.1562,184.4658,92.1639,267.9474,0,U,69377,999,383,.13749913E-2,.280996E-2,0
STARLINK-37376,2026-123AB,2026-06-28T06:45:51.405408,15.75239923,.00011842,53.1587,185.9991,88.0770,272.0386,0,U,69378,999,379,.12666999E-2,.198153E-2,0
STARLINK-37383,2026-123AC,2026-06-28T22:00:01.999584,15.75226161,.000114,53.1591,182.4219,92.9566,113.5557,0,U,69379,999,518,-.41259634E-4,-.6955E-4,0
STARLINK-37411,2026-123AD,2026-06-28T11:54:56.730816,15.80971885,.00006337,53.1567,184.4737,113.9099,246.1990,0,U,69380,999,383,.11968071E-2,.243402E-2,0
STARLINK-37427,2026-123AE,2026-06-28T23:57:19.080864,15.81078161,.00012871,53.1567,181.9122,139.0960,221.0160,0,U,69381,999,391,.16528609E-2,.341996E-2,0
QIANFAN-165,2026-124A,2026-06-28T22:00:07.063488,14.16014227,.00035754,88.9984,0.7142,106.1064,254.0517,0,U,69382,999,347,.44379938E-4,.102E-5,0
QIANFAN-166,2026-124B,2026-06-28T23:22:54.716160,14.17061538,.00030283,88.9985,0.7044,101.2768,258.8761,0,U,69383,999,348,.48801967E-4,.112E-5,0
QIANFAN-167,2026-124C,2026-06-28T21:47:50.239968,14.16527731,.00032433,88.9984,0.7128,138.3515,221.7921,0,U,69384,999,347,.39374953E-4,.93E-6,0
QIANFAN-168,2026-124D,2026-06-28T23:08:04.806528,14.17874754,.0003944,88.9984,0.7027,115.1621,244.9977,0,U,69385,999,348,.43875596E-4,.104E-5,0
QIANFAN-169,2026-124E,2026-06-28T22:59:43.071360,14.18288494,.00043382,88.9984,0.7017,128.9833,231.1743,0,U,69386,999,348,.44547197E-4,.106E-5,0
