STARLINK-37598          
1 69357U 26123E   26179.73781822  .00280035  00000+0  13710-2 0  9998
2 69357  53.1561 183.8775 0001753  96.6558 263.4664 15.80965696  3860
STARLINK-37602          
1 69358U 26123F   26179.72152426  .00296131  00000+0  18603-2 0  9990
2 69358  53.1578 184.5080 0000877  78.6820 281.4299 15.75347667  3853
STARLINK-37600          
1 69359U 26123G   26179.71730998  .00301666  00000+0  18936-2 0  9995
2 69359  53.1568 184.4796 0001217  71.5090 288.6062 15.75348688  3857
STARLINK-37599          
1 69360U 26123H   26179.72744338  .00249866  00000+0  12290-2 0  9991
2 69360  53.1556 183.8076 0001429  94.1658 265.9528 15.80947642  3863
STARLINK-37039          
1 69361U 26123J   26179.31361666  .00236823  00000+0  15044-2 0  9995
2 69361  53.1589 186.2169 0001220  92.2596 267.8564 15.75266215  3796
STARLINK-37040          
1 69362U 26123K   26179.71307469  .00242450  00000+0  11931-2 0  9995
2 69362  53.1561 183.7101 0000957 113.2885 246.8239 15.80957099  3863
STARLINK-37582          
1 69363U 26123L   26179.32755734  .00183311  00000+0  11732-2 0  9994
2 69363  53.1558 186.3095 0001356  45.2816 314.8314 15.75259904  3799
STARLINK-37309          
1 69364U 26123M   26179.91668981  .00010292  00000+0  71300-4 0  9993
2 69364  53.1582 182.7987 0001187 102.2902 283.9483 15.75214396  5183
STARLINK-37436          
1 69365U 26123N   26179.32047625  .00107614  00000+0  54124-3 0  9994
2 69365  53.1563 185.5217 0000945  80.5163 279.5967 15.80903126  3805
STARLINK-37581          
1 69366U 26123P   26179.26103255  .00222892  00000+0  11056-2 0  9992
2 69366  53.1562 185.8633 0001947  27.8191 332.2935 15.80839988  3792
STARLINK-37683          
1 69367U 26123Q   26179.99336528  .00264410  00000+0  16684-2 0  9998
2 69367  53.1568 182.6244 0001383  88.7973 271.3206 15.75338140  3905
STARLINK-37687          
1 69368U 26123R   26179.50567021  .00262417  00000+0  12863-2 0  9990
2 69368  53.1560 184.5412 0001254 133.5654 226.5473 15.80987609  3834
STARLINK-37631          
1 69369U 26123S   26179.91668981 -.00021186  00000+0 -13441-3 0  9995
2 69369  53.1585 182.5857 0000950 102.9235  26.3235 15.75234533  5097
STARLINK-37673          
1 69370U 26123T   26179.53595003  .00367932  00000+0  22882-2 0  9997
2 69370  53.1587 184.7434 0000917  66.6936 293.4181 15.75370834  3835
STARLINK-37645          
1 69371U 26123U   26179.91668981  .00006958  00000+0  49566-4 0  9994
2 69371  53.1576 182.6911 0001093  98.7392 339.0034 15.75217462  5090
STARLINK-37688          
1 69372U 26123V   26179.91668981 -.00001922  00000+0 -83715-5 0  9998
2 69372  53.1593 182.5272 0001095 102.2737  54.5486 15.75234216  5091
STARLINK-37685          
1 69373U 26123W   26179.31517151  .00247261  00000+0  12164-2 0  9998
2 69373  53.1561 185.4832 0001128  98.8377 261.2774 15.80950523  3804
STARLINK-37632          
1 69374U 26123X   26179.50408797  .00275595  00000+0  13488-2 0  9996
2 69374  53.1554 184.5293 0000936  94.8127 265.3003 15.80983967  3834
STARLINK-37454          
1 69375U 26123Y   26179.56620737  .00233946  00000+0  11512-2 0  9993
2 69375  53.1558 184.2032 0000919 107.1075 253.0048 15.80982778  3841
STARLINK-37485          
1 69376U 26123Z   26179.91668981  .00017653  00000+0  11921-3 0  9996
2 69376  53.1573 182.6325 0001169  91.4307  13.9015 15.75214680  5187
STARLINK-37439          
1 69377U 26123AA  26179.49513343  .00280996  00000+0  13750-2 0  9994
2 69377  53.1562 184.4658 0000785  92.1639 267.9474 15.80973168  3833
STARLINK-37376          
1 69378U 26123AB  26179.28184497  .00198153  00000+0  12667-2 0  9995
2 69378  53.1587 185.9991 0001184  88.0770 272.0386 15.75239923  3793
STARLINK-37383          
1 69379U 26123AC  26179.91668981 -.00006955  00000+0 -41260-4 0  9994
2 69379  53.1591 182.4219 0001140  92.9566 113.5557 15.75226161  5187
STARLINK-37411          
1 69380U 26123AD  26179.49648994  .00243402  00000+0  11968-2 0  9999
2 69380  53.1567 184.4737 0000633 113.9099 246.1990 15.80971885  3830
STARLINK-37427          
1 69381U 26123AE  26179.99813751  .00341996  00000+0  16529-2 0  9995
2 69381  53.1567 181.9122 0001287 139.0960 221.0160 15.81078161  3919
QIANFAN-165             
1 69382U 26124A   26179.91674842  .00000102  00000+0  44380-4 0  9994
2 69382  88.9984   0.7142 0003575 106.1064 254.0517 14.16014227  3474
QIANFAN-166             
1 69383U 26124B   26179.97424440  .00000112  00000+0  48802-4 0  9992
2 69383  88.9985   0.7044 0003028 101.2768 258.8761 14.17061538  3489
QIANFAN-167             
1 69384U 26124C   26179.90822037  .00000093  00000+0  39375-4 0  9993
2 69384  88.9984   0.7128 0003243 138.3515 221.7921 14.16527731  3479
QIANFAN-168             
1 69385U 26124D   26179.96394452  .00000104  00000+0  43876-4 0  9999
2 69385  88.9984   0.7027 0003944 115.1621 244.9977 14.17874754  3487
QIANFAN-169             
1 69386U 26124E   26179.95813740  .00000106  00000+0  44547-4 0  9993
2 69386  88.9984   0.7017 0004338 128.9833 231.1743 14.18288494  3482
